STARLINK-35966          
1 66821U 25280A   25346.83335648 -.01660119  00000+0 -10358-1 0  9993
2 66821  69.9935 198.5736 0003666 276.1119 260.9083 15.79767855  2913
STARLINK-35958          
1 66822U 25280B   25346.83335648 -.01647838  00000+0 -10266-1 0  9995
2 66822  69.9936 198.5716 0003789 272.6236 266.3079 15.79773079  2910
STARLINK-35957          
1 66823U 25280C   25346.83335648 -.01658422  00000+0 -10341-1 0  9991
2 66823  69.9934 198.5691 0003656 275.3149 265.6012 15.79778122  2910
STARLINK-35896          
1 66824U 25280D   25346.83335648 -.01662193  00000+0 -10368-1 0  9991
2 66824  69.9935 198.5668 0003549 269.5471 273.4090 15.79778746  2915
STARLINK-35476          
1 66825U 25280E   25346.83335648 -.01673460  00000+0 -10453-1 0  9996
2 66825  69.9933 198.5643 0003627 271.9150 273.1309 15.79771041  2769
STARLINK-35898          
1 66826U 25280F   25346.83335648 -.01679253  00000+0 -10484-1 0  9997
2 66826  69.9933 198.5619 0003546 268.5834 278.2916 15.79794425  2912
STARLINK-35959          
1 66827U 25280G   25346.83335648 -.01679648  00000+0 -10486-1 0  9998
2 66827  69.9931 198.5594 0003701 272.6903 276.2033 15.79794376  2912
STARLINK-35982          
1 66828U 25280H   25346.83335648 -.01706907  00000+0 -10689-1 0  9993
2 66828  69.9931 198.5545 0003616 272.0194 281.0729 15.79784341  2917
STARLINK-36084          
1 66829U 25280J   25346.83335648 -.01702163  00000+0 -10650-1 0  9992
2 66829  69.9930 198.5569 0003605 273.4571 277.5374 15.79792609  2759
STARLINK-35881          
1 66830U 25280K   25346.83335648 -.01700600  00000+0 -10633-1 0  9999
2 66830  69.9926 198.5518 0003508 276.1020 278.7868 15.79805407  2911
STARLINK-35788          
1 66831U 25280L   25346.83335648 -.01750142  00000+0 -10718-1 0  9990
2 66831  69.9935 198.5503 0003621 270.0850 286.6266 15.79833976  2918
STARLINK-35768          
1 66832U 25280M   25346.83335648 -.01703374  00000+0 -10628-1 0  9996
2 66832  69.9929 198.5475 0003646 273.5297 284.9660 15.79855527  2915
STARLINK-35858          
1 66833U 25280N   25346.83335648 -.01749777  00000+0 -10709-1 0  9994
2 66833  69.9931 198.5454 0003667 270.6200 290.0012 15.79845008  2913
STARLINK-35840          
1 66834U 25280P   25346.83335648 -.01756186  00000+0 -10742-1 0  9994
2 66834  69.9927 198.5427 0003658 268.1971 294.2549 15.79868520  2911
STARLINK-35890          
1 66835U 25280Q   25346.83335648 -.01758588  00000+0 -10755-1 0  9997
2 66835  69.9924 198.5400 0003827 270.4748 293.9543 15.79873339  2910
STARLINK-35838          
1 66836U 25280R   25346.83335648 -.01766475  00000+0 -10810-1 0  9994
2 66836  69.9923 198.5373 0003771 270.3284 296.1428 15.79873517  2916
STARLINK-35729          
1 66837U 25280S   25346.83335648 -.01780392  00000+0 -10905-1 0  9994
2 66837  69.9921 198.5348 0003516 274.1396 294.3402 15.79880316  2917
STARLINK-35886          
1 66838U 25280T   25346.83335648 -.01785729  00000+0 -10932-1 0  9994
2 66838  69.9920 198.5301 0003522 273.0666 299.2801 15.79900815  2915
STARLINK-35717          
1 66839U 25280U   25346.83335648 -.01781008  00000+0 -10900-1 0  9996
2 66839  69.9921 198.5325 0003698 268.8879 301.4603 15.79897002  2914
STARLINK-35837          
1 66840U 25280V   25346.83335648 -.01792380  00000+0 -10974-1 0  9994
2 66840  69.9924 198.5282 0003534 273.0729 301.2338 15.79910296  2916
STARLINK-35715          
1 66841U 25280W   25346.83335648 -.01801873  00000+0 -11035-1 0  9992
2 66841  69.9920 198.5254 0003689 269.8287 306.4822 15.79916576  2917
STARLINK-35769          
1 66842U 25280X   25346.83335648 -.01798125  00000+0 -11002-1 0  9992
2 66842  69.9922 198.5235 0003709 268.2356 309.9563 15.79929650  2919
STARLINK-35997          
1 66843U 25280Y   25346.83335648 -.01820260  00000+0 -11146-1 0  9998
2 66843  69.9917 198.5181 0003619 272.8844 309.2493 15.79952382  2910
STARLINK-36073          
1 66844U 25280Z   25346.83335648 -.01817936  00000+0 -11141-1 0  9990
2 66844  69.9919 198.5205 0003633 273.8169 306.4728 15.79929057  2910
STARLINK-36068          
1 66845U 25280AA  25346.83335648 -.01836227  00000+0 -11236-1 0  9990
2 66845  69.9916 198.5115 0003633 267.4027 320.5120 15.79992683  2918
STARLINK-36055          
1 66846U 25280AB  25346.83335648 -.01822586  00000+0 -11168-1 0  9998
2 66846  69.9917 198.5156 0003707 269.0176 315.2358 15.79939150  2914
STARLINK-36061          
1 66847U 25280AC  25346.83335648 -.01826771  00000+0 -11182-1 0  9995
2 66847  69.9917 198.5138 0003717 269.0585 316.9934 15.79968293  2862
STARLINK-36091          
1 66848U 25281A   25346.83335648 -.00964525  00000+0 -33582-2 0  9995
2 66848  43.0010 121.8181 0001818 280.7024  44.9948 15.90522465  1418
STARLINK-36102          
1 66849U 25281B   25346.83335648 -.00967666  00000+0 -33644-2 0  9994
2 66849  43.0012 121.8119 0001643 281.6245  46.2999 15.90558114  1414
STARLINK-36105          
1 66850U 25281C   25346.83335648 -.00990132  00000+0 -34407-2 0  9998
2 66850  43.0009 121.8046 0001727 282.1385  48.7563 15.90617636  1414
STARLINK-36094          
1 66851U 25281D   25346.83335648 -.00980863  00000+0 -33998-2 0  9993
2 66851  43.0008 121.7987 0001691 284.2179  48.9891 15.90646371  1415
STARLINK-35992          
1 66852U 25281E   25346.83335648 -.00995955  00000+0 -34497-2 0  9997
2 66852  43.0011 121.7932 0001627 286.0426  49.3808 15.90694413  1417
STARLINK-35986          
1 66853U 25281F   25346.83335648 -.00996227  00000+0 -34423-2 0  9990
2 66853  43.0010 121.7852 0001745 281.8086  56.8000 15.90740330  1411
STARLINK-36087          
1 66854U 25281G   25346.83335648 -.01005351  00000+0 -34684-2 0  9990
2 66854  43.0010 121.7771 0001737 279.8327  61.8172 15.90790790  1419
STARLINK-36090          
1 66855U 25281H   25346.83335648 -.01004809  00000+0 -34587-2 0  9990
2 66855  43.0012 121.7710 0001723 279.0894  65.0312 15.90833336  1305
STARLINK-36072          
1 66856U 25281J   25346.83335648 -.01001959  00000+0 -34400-2 0  9998
2 66856  43.0010 121.7636 0001655 283.3435  63.6378 15.90877289  1417
STARLINK-36083          
1 66857U 25281K   25346.83335648 -.01008723  00000+0 -34576-2 0  9999
2 66857  43.0008 121.7578 0001753 284.2287  65.1227 15.90922646  1412
STARLINK-35118          
1 66858U 25281L   25346.83335648 -.01032197  00000+0 -35373-2 0  9998
2 66858  43.0012 121.7511 0001811 282.2743  69.5718 15.90978536  1305
STARLINK-35646          
1 66859U 25281M   25346.83335648 -.01074394  00000+0 -36874-2 0  9991
2 66859  43.0011 121.7444 0001894 280.2527  74.3813 15.91043522  1410
STARLINK-35987          
1 66860U 25281N   25346.83335648 -.01375120  53718-3 -41647-2 0  9996
2 66860  43.0011 121.7076 0001752 279.8025  89.2992 15.91251416  1420
STARLINK-35991          
1 66861U 25281P   25346.83335648 -.01330132  50502-3 -40450-2 0  9990
2 66861  43.0013 121.7298 0001709 280.5299  79.8192 15.91165179  1420
STARLINK-35974          
1 66862U 25281Q   25346.83335648 -.01287026  47524-3 -39223-2 0  9990
2 66862  43.0011 121.7369 0001885 278.5307  79.1148 15.91115992  1310
STARLINK-36134          
1 66863U 25281R   25346.83335648 -.01370384  53354-3 -41612-2 0  9994
2 66863  43.0015 121.7210 0001643 283.7399  80.1413 15.91200386  1422
STARLINK-36070          
1 66864U 25281S   25346.83335648 -.01363320  52863-3 -41346-2 0  9995
2 66864  43.0015 121.7143 0001707 281.2908  85.1095 15.91223318  1452
STARLINK-36117          
1 66865U 25281T   25346.83335648 -.01393838  55082-3 -42153-2 0  9996
2 66865  43.0013 121.7008 0001751 280.0066  91.9338 15.91282304  1424
STARLINK-36126          
1 66866U 25281U   25346.83335648 -.01392413  54992-3 -42054-2 0  9994
2 66866  43.0012 121.6950 0001673 280.0910  94.1899 15.91308024  1458
STARLINK-36101          
1 66867U 25281V   25346.83335648 -.01405759  55977-3 -42401-2 0  9993
2 66867  43.0015 121.6870 0001682 283.2573  94.1294 15.91335699  1304
STARLINK-36108          
1 66868U 25281W   25346.83335648 -.01415479  56703-3 -42638-2 0  9994
2 66868  43.0013 121.6784 0001707 281.2954  99.4206 15.91362802  1303
STARLINK-36092          
1 66869U 25281X   25346.83335648 -.01420674  57101-3 -42730-2 0  9994
2 66869  43.0014 121.6719 0001840 279.7683 103.5493 15.91392378  1454
STARLINK-36114          
1 66870U 25281Y   25346.83335648 -.01438226  58419-3 -43195-2 0  9997
2 66870  43.0012 121.6633 0001694 277.8640 108.8233 15.91423713  1322
STARLINK-36095          
1 66871U 25281Z   25346.83335648 -.01444581  58908-3 -43330-2 0  9993
2 66871  43.0010 121.6542 0001613 281.1966 108.9317 15.91449847  1454
STARLINK-36082          
1 66872U 25281AA  25346.83335648 -.01437798  58416-3 -43065-2 0  9995
2 66872  43.0011 121.6482 0001672 282.5332 109.9163 15.91476396  1321
STARLINK-36128          
1 66873U 25281AB  25346.83335648 -.01468977  60821-3 -43776-2 0  9991
2 66873  43.0007 121.6264 0001761 281.0251 120.0511 15.91579031  1453
STARLINK-36129          
1 66874U 25281AC  25346.83335648 -.01448777  59255-3 -43327-2 0  9999
2 66874  43.0010 121.6401 0001629 284.7132 111.0403 15.91507856  1458
STARLINK-36053          
1 66875U 25281AD  25346.83335648 -.01466018  60613-3 -43621-2 0  9995
2 66875  43.0009 121.6185 0001662 282.6232 121.3514 15.91608431  1459
STARLINK-35702          
1 66876U 25281AE  25346.83335648 -.01447278  59158-3 -43221-2 0  9991
2 66876  43.0012 121.6318 0001785 282.7200 116.3320 15.91534716  1457
ZQ-3 R/B                
1 66877U 25282A   25346.54103971  .01370702  74503-5  27505-3 0  9999
2 66877  56.9522  58.4389 0783473 219.6051 134.5165 14.58437511  1362
STARLINK-35866          
1 66878U 25283A   25346.83335648 -.01252273  46976-3 -33130-2 0  9996
2 66878  53.1549  73.5258 0000890  57.5648 311.7036 15.94056149  2441
STARLINK-35749          
1 66879U 25283B   25346.83335648 -.01278043  48813-3 -33591-2 0  9993
2 66879  53.1548  73.5167 0000970  58.7168 314.8573 15.94183877  2448
